CCSDS_OMM_VERS = 2.0
CREATION_DATE  = 
ORIGINATOR     = 

OBJECT_NAME    = SILVERSAT
OBJECT_ID      = 1998-067XV
CENTER_NAME    = EARTH
REF_FRAME      = TEME
TIME_SYSTEM    = UTC
MEAN_ELEMENT_THEORY = SGP/SGP4

EPOCH          = 2026-02-27T04:58:59.973312
MEAN_MOTION    = 15.68187801
ECCENTRICITY   = .00051027
INCLINATION    = 51.6255
RA_OF_ASC_NODE = 118.4060
ARG_OF_PERICENTER = 18.2131
MEAN_ANOMALY   = 341.9047

EPHEMERIS_TYPE = 0
CLASSIFICATION_TYPE = U
NORAD_CAT_ID   = 66909
ELEMENT_SET_NO = 999
REV_AT_EPOCH   = 1354
BSTAR          = .13405406E-2
MEAN_MOTION_DOT = .155167E-2
MEAN_MOTION_DDOT = 0

CCSDS_OMM_VERS = 2.0
CREATION_DATE  = 
ORIGINATOR     = 

OBJECT_NAME    = ISS OBJECT XW
OBJECT_ID      = 1998-067XW
CENTER_NAME    = EARTH
REF_FRAME      = TEME
TIME_SYSTEM    = UTC
MEAN_ELEMENT_THEORY = SGP/SGP4

EPOCH          = 2026-02-26T08:27:49.520736
MEAN_MOTION    = 15.65404578
ECCENTRICITY   = .0004341
INCLINATION    = 51.6265
RA_OF_ASC_NODE = 123.1932
ARG_OF_PERICENTER = 27.6872
MEAN_ANOMALY   = 332.4354

EPHEMERIS_TYPE = 0
CLASSIFICATION_TYPE = U
NORAD_CAT_ID   = 66910
ELEMENT_SET_NO = 999
REV_AT_EPOCH   = 1340
BSTAR          = .10924E-2
MEAN_MOTION_DOT = .112245E-2
MEAN_MOTION_DDOT = 0

CCSDS_OMM_VERS = 2.0
CREATION_DATE  = 
ORIGINATOR     = 

OBJECT_NAME    = ISS OBJECT XX
OBJECT_ID      = 1998-067XX
CENTER_NAME    = EARTH
REF_FRAME      = TEME
TIME_SYSTEM    = UTC
MEAN_ELEMENT_THEORY = SGP/SGP4

EPOCH          = 2026-02-26T10:59:54.750048
MEAN_MOTION    = 15.70039682
ECCENTRICITY   = .0006501
INCLINATION    = 51.6219
RA_OF_ASC_NODE = 121.6389
ARG_OF_PERICENTER = 20.9484
MEAN_ANOMALY   = 339.1779

EPHEMERIS_TYPE = 0
CLASSIFICATION_TYPE = U
NORAD_CAT_ID   = 66911
ELEMENT_SET_NO = 999
REV_AT_EPOCH   = 1342
BSTAR          = .15289E-2
MEAN_MOTION_DOT = .19206E-2
MEAN_MOTION_DDOT = 0

CCSDS_OMM_VERS = 2.0
CREATION_DATE  = 
ORIGINATOR     = 

OBJECT_NAME    = ISS OBJECT XY
OBJECT_ID      = 1998-067XY
CENTER_NAME    = EARTH
REF_FRAME      = TEME
TIME_SYSTEM    = UTC
MEAN_ELEMENT_THEORY = SGP/SGP4

EPOCH          = 2026-02-27T05:18:34.245216
MEAN_MOTION    = 15.61649345
ECCENTRICITY   = .0002548
INCLINATION    = 51.6276
RA_OF_ASC_NODE = 120.0050
ARG_OF_PERICENTER = 34.6660
MEAN_ANOMALY   = 325.4499

EPHEMERIS_TYPE = 0
CLASSIFICATION_TYPE = U
NORAD_CAT_ID   = 66912
ELEMENT_SET_NO = 999
REV_AT_EPOCH   = 1351
BSTAR          = .89356376E-3
MEAN_MOTION_DOT = .78727E-3
MEAN_MOTION_DDOT = 0

CCSDS_OMM_VERS = 2.0
CREATION_DATE  = 
ORIGINATOR     = 

OBJECT_NAME    = ISS OBJECT XZ
OBJECT_ID      = 1998-067XZ
CENTER_NAME    = EARTH
REF_FRAME      = TEME
TIME_SYSTEM    = UTC
MEAN_ELEMENT_THEORY = SGP/SGP4

EPOCH          = 2026-02-26T13:59:54.655872
MEAN_MOTION    = 15.50854175
ECCENTRICITY   = .0009776
INCLINATION    = 51.6313
RA_OF_ASC_NODE = 126.9935
ARG_OF_PERICENTER = 149.0473
MEAN_ANOMALY   = 211.1094

EPHEMERIS_TYPE = 0
CLASSIFICATION_TYPE = U
NORAD_CAT_ID   = 67683
ELEMENT_SET_NO = 999
REV_AT_EPOCH   = 306
BSTAR          = .69811E-3
MEAN_MOTION_DOT = .40888E-3
MEAN_MOTION_DDOT = 0

CCSDS_OMM_VERS = 2.0
CREATION_DATE  = 
ORIGINATOR     = 

OBJECT_NAME    = GXIBA-1
OBJECT_ID      = 1998-067YA
CENTER_NAME    = EARTH
REF_FRAME      = TEME
TIME_SYSTEM    = UTC
MEAN_ELEMENT_THEORY = SGP/SGP4

EPOCH          = 2026-02-27T05:08:21.886080
MEAN_MOTION    = 15.52551560
ECCENTRICITY   = .00111391
INCLINATION    = 51.6304
RA_OF_ASC_NODE = 123.7084
ARG_OF_PERICENTER = 141.9822
MEAN_ANOMALY   = 218.1956

EPHEMERIS_TYPE = 0
CLASSIFICATION_TYPE = U
NORAD_CAT_ID   = 67684
ELEMENT_SET_NO = 999
REV_AT_EPOCH   = 316
BSTAR          = .11163367E-2
MEAN_MOTION_DOT = .70101E-3
MEAN_MOTION_DDOT = 0

CCSDS_OMM_VERS = 2.0
CREATION_DATE  = 
ORIGINATOR     = 

OBJECT_NAME    = CORAL
OBJECT_ID      = 1998-067YB
CENTER_NAME    = EARTH
REF_FRAME      = TEME
TIME_SYSTEM    = UTC
MEAN_ELEMENT_THEORY = SGP/SGP4

EPOCH          = 2026-02-27T05:24:23.636448
MEAN_MOTION    = 15.51165171
ECCENTRICITY   = .00116727
INCLINATION    = 51.6317
RA_OF_ASC_NODE = 123.7815
ARG_OF_PERICENTER = 147.2577
MEAN_ANOMALY   = 212.9138

EPHEMERIS_TYPE = 0
CLASSIFICATION_TYPE = U
NORAD_CAT_ID   = 67685
ELEMENT_SET_NO = 999
REV_AT_EPOCH   = 316
BSTAR          = .70433018E-3
MEAN_MOTION_DOT = .41759E-3
MEAN_MOTION_DDOT = 0

CCSDS_OMM_VERS = 2.0
CREATION_DATE  = 
ORIGINATOR     = 

OBJECT_NAME    = ISS OBJECT YC
OBJECT_ID      = 1998-067YC
CENTER_NAME    = EARTH
REF_FRAME      = TEME
TIME_SYSTEM    = UTC
MEAN_ELEMENT_THEORY = SGP/SGP4

EPOCH          = 2026-02-27T05:20:36.874464
MEAN_MOTION    = 15.51504601
ECCENTRICITY   = .00076359
INCLINATION    = 51.6316
RA_OF_ASC_NODE = 123.7650
ARG_OF_PERICENTER = 116.0274
MEAN_ANOMALY   = 244.1502

EPHEMERIS_TYPE = 0
CLASSIFICATION_TYPE = U
NORAD_CAT_ID   = 67686
ELEMENT_SET_NO = 999
REV_AT_EPOCH   = 316
BSTAR          = .81030997E-3
MEAN_MOTION_DOT = .48672E-3
MEAN_MOTION_DDOT = 0

CCSDS_OMM_VERS = 2.0
CREATION_DATE  = 
ORIGINATOR     = 

OBJECT_NAME    = LEOPARD
OBJECT_ID      = 1998-067YD
CENTER_NAME    = EARTH
REF_FRAME      = TEME
TIME_SYSTEM    = UTC
MEAN_ELEMENT_THEORY = SGP/SGP4

EPOCH          = 2026-02-27T05:25:52.490208
MEAN_MOTION    = 15.51031776
ECCENTRICITY   = .00076856
INCLINATION    = 51.6317
RA_OF_ASC_NODE = 123.7886
ARG_OF_PERICENTER = 119.4028
MEAN_ANOMALY   = 240.7729

EPHEMERIS_TYPE = 0
CLASSIFICATION_TYPE = U
NORAD_CAT_ID   = 67687
ELEMENT_SET_NO = 999
REV_AT_EPOCH   = 308
BSTAR          = .65615317E-3
MEAN_MOTION_DOT = .3861E-3
MEAN_MOTION_DDOT = 0

CCSDS_OMM_VERS = 2.0
CREATION_DATE  = 
ORIGINATOR     = 

OBJECT_NAME    = ISS OBJECT YE
OBJECT_ID      = 1998-067YE
CENTER_NAME    = EARTH
REF_FRAME      = TEME
TIME_SYSTEM    = UTC
MEAN_ELEMENT_THEORY = SGP/SGP4

EPOCH          = 2026-02-27T05:22:14.997216
MEAN_MOTION    = 15.51346804
ECCENTRICITY   = .00076207
INCLINATION    = 51.6318
RA_OF_ASC_NODE = 123.7727
ARG_OF_PERICENTER = 116.7644
MEAN_ANOMALY   = 243.4126

EPHEMERIS_TYPE = 0
CLASSIFICATION_TYPE = U
NORAD_CAT_ID   = 67688
ELEMENT_SET_NO = 999
REV_AT_EPOCH   = 308
BSTAR          = .76399081E-3
MEAN_MOTION_DOT = .45585E-3
MEAN_MOTION_DDOT = 0

CCSDS_OMM_VERS = 2.0
CREATION_DATE  = 
ORIGINATOR     = 

OBJECT_NAME    = CREW DRAGON 12
OBJECT_ID      = 2026-031A
CENTER_NAME    = EARTH
REF_FRAME      = TEME
TIME_SYSTEM    = UTC
MEAN_ELEMENT_THEORY = SGP/SGP4

EPOCH          = 2026-02-27T06:02:26.632896
MEAN_MOTION    = 15.48333785
ECCENTRICITY   = .00083426
INCLINATION    = 51.6322
RA_OF_ASC_NODE = 123.9568
ARG_OF_PERICENTER = 138.2013
MEAN_ANOMALY   = 221.9613

EPHEMERIS_TYPE = 0
CLASSIFICATION_TYPE = U
NORAD_CAT_ID   = 67796
ELEMENT_SET_NO = 999
REV_AT_EPOCH   = 55468
BSTAR          = .26392566E-3
MEAN_MOTION_DOT = .13796E-3
MEAN_MOTION_DDOT = 0

