SILVERSAT               
1 66909U 98067XV  26058.20763858  .00155167  00000+0  13405-2 0  9999
2 66909  51.6255 118.4060 0005102  18.2131 341.9047 15.68187801 13546
ISS OBJECT XW           
1 66910U 98067XW  26057.35265649  .00112245  00000+0  10924-2 0  9994
2 66910  51.6265 123.1932 0004341  27.6872 332.4354 15.65404578 13401
ISS OBJECT XX           
1 66911U 98067XX  26057.45827257  .00192060  00000+0  15289-2 0  9997
2 66911  51.6219 121.6389 0006501  20.9484 339.1779 15.70039682 13428
ISS OBJECT XY           
1 66912U 98067XY  26058.22122969  .00078727  00000+0  89356-3 0  9992
2 66912  51.6276 120.0050 0002548  34.6660 325.4499 15.61649345 13515
ISS OBJECT XZ           
1 67683U 98067XZ  26057.58327148  .00040888  00000+0  69811-3 0  9993
2 67683  51.6313 126.9935 0009776 149.0473 211.1094 15.50854175  3061
GXIBA-1                 
1 67684U 98067YA  26058.21414220  .00070101  00000+0  11163-2 0  9990
2 67684  51.6304 123.7084 0011139 141.9822 218.1956 15.52551560  3166
CORAL                   
1 67685U 98067YB  26058.22527357  .00041759  00000+0  70433-3 0  9991
2 67685  51.6317 123.7815 0011672 147.2577 212.9138 15.51165171  3163
ISS OBJECT YC           
1 67686U 98067YC  26058.22264901  .00048672  00000+0  81031-3 0  9992
2 67686  51.6316 123.7650 0007635 116.0274 244.1502 15.51504601  3169
LEOPARD                 
1 67687U 98067YD  26058.22630197  .00038610  00000+0  65615-3 0  9998
2 67687  51.6317 123.7886 0007685 119.4028 240.7729 15.51031776  3083
ISS OBJECT YE           
1 67688U 98067YE  26058.22378469  .00045585  00000+0  76399-3 0  9990
2 67688  51.6318 123.7727 0007620 116.7644 243.4126 15.51346804  3084
CREW DRAGON 12          
1 67796U 26031A   26058.25169714  .00013796  00000+0  26393-3 0  9994
2 67796  51.6322 123.9568 0008342 138.2013 221.9613 15.48333785554684
